{
  "type": "FeatureCollection",
  "features": [
    {
      "type": "Feature",
      "properties": {
        "norad_id": 67152,
        "name": "KUIPER-00247",
        "group": "last-30-days",
        "lat": 50.823637670575565,
        "lon": 170.6939370709066,
        "alt_km": 452.18097704498723,
        "timestamp": "2025-12-25T03:55:54.957716+00:00",
        "meta_object_name": "KUIPER-00247",
        "meta_object_id": "2025-301V",
        "meta_epoch": "2025-12-23T18:00:02.999808",
        "meta_mean_motion": 15.33875393,
        "meta_eccentricity": 0.00111613,
        "meta_inclination": 51.8622,
        "meta_ra_of_asc_node": 72.1215,
        "meta_arg_of_pericenter": 144.9404,
        "meta_mean_anomaly": 62.6836,
        "meta_ephemeris_type": 0,
        "meta_classification_type": "U",
        "meta_norad_cat_id": 67152,
        "meta_element_set_no": 999,
        "meta_rev_at_epoch": 197,
        "meta_bstar": 0.00085577209,
        "meta_mean_motion_dot": 0.00028244,
        "meta_mean_motion_ddot": 0,
        "tle_line1": "1 67152U 25301V   25357.75003472  .00028244  00000+0  85577-3 0  9996",
        "tle_line2": "2 67152  51.8622  72.1215 0011161 144.9404  62.6836 15.33875393  1976"
      },
      "geometry": {
        "type": "Point",
        "coordinates": [
          170.6939370709066,
          50.823637670575565
        ]
      }
    },
    {
      "type": "Feature",
      "properties": {
        "norad_id": 67153,
        "name": "KUIPER-00248",
        "group": "last-30-days",
        "lat": 42.34020285364148,
        "lon": -160.43949964551692,
        "alt_km": 450.66397652890737,
        "timestamp": "2025-12-25T03:55:54.957726+00:00",
        "meta_object_name": "KUIPER-00248",
        "meta_object_id": "2025-301W",
        "meta_epoch": "2025-12-23T18:00:02.999808",
        "meta_mean_motion": 15.34551303,
        "meta_eccentricity": 0.00085876,
        "meta_inclination": 51.8667,
        "meta_ra_of_asc_node": 72.0842,
        "meta_arg_of_pericenter": 133.6723,
        "meta_mean_anomaly": 91.8145,
        "meta_ephemeris_type": 0,
        "meta_classification_type": "U",
        "meta_norad_cat_id": 67153,
        "meta_element_set_no": 999,
        "meta_rev_at_epoch": 222,
        "meta_bstar": 0.00093162525,
        "meta_mean_motion_dot": 0.00031444,
        "meta_mean_motion_ddot": 0,
        "tle_line1": "1 67153U 25301W   25357.75003472  .00031444  00000+0  93163-3 0  9993",
        "tle_line2": "2 67153  51.8667  72.0842 0008587 133.6723  91.8145 15.34551303  2227"
      },
      "geometry": {
        "type": "Point",
        "coordinates": [
          -160.43949964551692,
          42.34020285364148
        ]
      }
    },
    {
      "type": "Feature",
      "properties": {
        "norad_id": 67154,
        "name": "KUIPER-00249",
        "group": "last-30-days",
        "lat": 38.28624063577999,
        "lon": -153.06949610002567,
        "alt_km": 451.1052800183579,
        "timestamp": "2025-12-25T03:55:54.957736+00:00",
        "meta_object_name": "KUIPER-00249",
        "meta_object_id": "2025-301X",
        "meta_epoch": "2025-12-23T18:00:02.999808",
        "meta_mean_motion": 15.34738721,
        "meta_eccentricity": 0.00077086,
        "meta_inclination": 51.8642,
        "meta_ra_of_asc_node": 72.073,
        "meta_arg_of_pericenter": 130.5377,
        "meta_mean_anomaly": 100.8985,
        "meta_ephemeris_type": 0,
        "meta_classification_type": "U",
        "meta_norad_cat_id": 67154,
        "meta_element_set_no": 999,
        "meta_rev_at_epoch": 190,
        "meta_bstar": 0.00092607986,
        "meta_mean_motion_dot": 0.00031436,
        "meta_mean_motion_ddot": 0,
        "tle_line1": "1 67154U 25301X   25357.75003472  .00031436  00000+0  92608-3 0  9998",
        "tle_line2": "2 67154  51.8642  72.0730 0007708 130.5377 100.8985 15.34738721  1900"
      },
      "geometry": {
        "type": "Point",
        "coordinates": [
          -153.06949610002567,
          38.28624063577999
        ]
      }
    },
    {
      "type": "Feature",
      "properties": {
        "norad_id": 67155,
        "name": "KUIPER-00250",
        "group": "last-30-days",
        "lat": 28.044533957016327,
        "lon": -139.51027901549486,
        "alt_km": 452.59300148294824,
        "timestamp": "2025-12-25T03:55:54.957745+00:00",
        "meta_object_name": "KUIPER-00250",
        "meta_object_id": "2025-301Y",
        "meta_epoch": "2025-12-23T18:00:02.999808",
        "meta_mean_motion": 15.3521976,
        "meta_eccentricity": 0.00060388,
        "meta_inclination": 51.8702,
        "meta_ra_of_asc_node": 72.0435,
        "meta_arg_of_pericenter": 121.2799,
        "meta_mean_anomaly": 122.9362,
        "meta_ephemeris_type": 0,
        "meta_classification_type": "U",
        "meta_norad_cat_id": 67155,
        "meta_element_set_no": 999,
        "meta_rev_at_epoch": 208,
        "meta_bstar": 0.00090408144,
        "meta_mean_motion_dot": 0.00031147,
        "meta_mean_motion_ddot": 0,
        "tle_line1": "1 67155U 25301Y   25357.75003472  .00031147  00000+0  90408-3 0  9994",
        "tle_line2": "2 67155  51.8702  72.0435 0006038 121.2799 122.9362 15.35219760  2082"
      },
      "geometry": {
        "type": "Point",
        "coordinates": [
          -139.51027901549486,
          28.044533957016327
        ]
      }
    },
    {
      "type": "Feature",
      "properties": {
        "norad_id": 67156,
        "name": "KUIPER-00251",
        "group": "last-30-days",
        "lat": 40.71425735675863,
        "lon": -157.27156033546177,
        "alt_km": 450.43986642716754,
        "timestamp": "2025-12-25T03:55:54.957757+00:00",
        "meta_object_name": "KUIPER-00251",
        "meta_object_id": "2025-301Z",
        "meta_epoch": "2025-12-23T18:00:02.999808",
        "meta_mean_motion": 15.34644116,
        "meta_eccentricity": 0.00086077,
        "meta_inclination": 51.8654,
        "meta_ra_of_asc_node": 72.0797,
        "meta_arg_of_pericenter": 129.0092,
        "meta_mean_anomaly": 98.8667,
        "meta_ephemeris_type": 0,
        "meta_classification_type": "U",
        "meta_norad_cat_id": 67156,
        "meta_element_set_no": 999,
        "meta_rev_at_epoch": 224,
        "meta_bstar": 0.00092625231,
        "meta_mean_motion_dot": 0.00031353,
        "meta_mean_motion_ddot": 0,
        "tle_line1": "1 67156U 25301Z   25357.75003472  .00031353  00000+0  92625-3 0  9997",
        "tle_line2": "2 67156  51.8654  72.0797 0008607 129.0092  98.8667 15.34644116  2249"
      },
      "geometry": {
        "type": "Point",
        "coordinates": [
          -157.27156033546177,
          40.71425735675863
        ]
      }
    },
    {
      "type": "Feature",
      "properties": {
        "norad_id": 67157,
        "name": "KUIPER-00252",
        "group": "last-30-days",
        "lat": 47.52553766858702,
        "lon": -173.81511314497405,
        "alt_km": 450.9283624997597,
        "timestamp": "2025-12-25T03:55:54.957769+00:00",
        "meta_object_name": "KUIPER-00252",
        "meta_object_id": "2025-301AA",
        "meta_epoch": "2025-12-23T18:00:02.999808",
        "meta_mean_motion": 15.34213658,
        "meta_eccentricity": 0.00099122,
        "meta_inclination": 51.8646,
        "meta_ra_of_asc_node": 72.1033,
        "meta_arg_of_pericenter": 139.8935,
        "meta_mean_anomaly": 76.5865,
        "meta_ephemeris_type": 0,
        "meta_classification_type": "U",
        "meta_norad_cat_id": 67157,
        "meta_element_set_no": 999,
        "meta_rev_at_epoch": 193,
        "meta_bstar": 0.00089342134,
        "meta_mean_motion_dot": 0.00029818,
        "meta_mean_motion_ddot": 0,
        "tle_line1": "1 67157U 25301AA  25357.75003472  .00029818  00000+0  89342-3 0  9993",
        "tle_line2": "2 67157  51.8646  72.1033 0009912 139.8935  76.5865 15.34213658  1931"
      },
      "geometry": {
        "type": "Point",
        "coordinates": [
          -173.81511314497405,
          47.52553766858702
        ]
      }
    },
    {
      "type": "Feature",
      "properties": {
        "norad_id": 67158,
        "name": "KUIPER-00261",
        "group": "last-30-days",
        "lat": 23.942260959827923,
        "lon": -135.19806011556503,
        "alt_km": 453.5193170404418,
        "timestamp": "2025-12-25T03:55:54.957779+00:00",
        "meta_object_name": "KUIPER-00261",
        "meta_object_id": "2025-301AB",
        "meta_epoch": "2025-12-23T18:00:02.999808",
        "meta_mean_motion": 15.35353398,
        "meta_eccentricity": 0.00054421,
        "meta_inclination": 51.8683,
        "meta_ra_of_asc_node": 72.0353,
        "meta_arg_of_pericenter": 116.3566,
        "meta_mean_anomaly": 132.8234,
        "meta_ephemeris_type": 0,
        "meta_classification_type": "U",
        "meta_norad_cat_id": 67158,
        "meta_element_set_no": 999,
        "meta_rev_at_epoch": 152,
        "meta_bstar": 0.0008543024,
        "meta_mean_motion_dot": 0.00029529,
        "meta_mean_motion_ddot": 0,
        "tle_line1": "1 67158U 25301AB  25357.75003472  .00029529  00000+0  85430-3 0  9997",
        "tle_line2": "2 67158  51.8683  72.0353 0005442 116.3566 132.8234 15.35353398  1529"
      },
      "geometry": {
        "type": "Point",
        "coordinates": [
          -135.19806011556503,
          23.942260959827923
        ]
      }
    }
  ]
}